MEAN_MOTION;ECCENTRICITY;INCLINATION;RA_OF_ASC_NODE;ARG_OF_PERICENTER;MEAN_ANOMALY;BSTAR;MEAN_MOTION_DOT;MEAN_MOTION_DDOT;TYPE
2.00563872;0.0141754;54.9485;9.2087;34.1791;202.4451;0;-7.7E-7;0;Navigation
2.0056386;0.0141798;54.9485;9.171;34.2031;152.654;0;-8.0E-7;0;Navigation
2.00563857;0.0141848;54.9485;9.1286;34.232;184.351;0;-8.4E-7;0;Navigation
2.00563856;0.0141851;54.9485;9.1263;34.235;225.4671;0;-8.4E-7;0;Navigation
2.00563856;0.0141875;54.9485;9.1077;34.2472;195.7305;0;-8.5E-7;0;Navigation
2.00563858;0.0141902;54.9485;9.0889;34.2618;169.3351;0;-8.7E-7;0;Navigation
2.00563858;0.0141902;54.9485;9.0889;34.2618;169.3351;0;-8.7E-7;0;Navigation
2.00563858;0.0141902;54.9485;9.0889;34.2618;169.3351;0;-8.7E-7;0;Navigation
2.00563881;0.0142007;54.9484;9.0069;34.3207;184.1711;0;-9.1E-7;0;Navigation
2.00563891;0.0142035;54.9484;8.9864;34.3368;189.4426;0;-9.2E-7;0;Navigation
2.00563923;0.0142114;54.9484;8.9324;34.3811;69.5173;0;-9.5E-7;0;Navigation
2.00563923;0.0142114;54.9484;8.9324;34.3811;69.5173;0;-9.5E-7;0;Navigation
2.00563986;0.0142223;54.9483;8.8451;34.4431;178.8811;0;-1.02E-6;0;Navigation
2.00563986;0.0142223;54.9483;8.8451;34.4431;178.8811;0;-1.02E-6;0;Navigation
2.00563986;0.0142223;54.9483;8.8451;34.4431;178.8811;0;-1.02E-6;0;Navigation
2.00563991;0.0142234;54.9483;8.8371;34.4491;321.7441;0;-1.02E-6;0;Navigation
2.00564019;0.0142283;54.9482;8.8023;34.4774;219.8612;0;-1.05E-6;0;Navigation
2.00564019;0.0142283;54.9482;8.8023;34.4774;219.8612;0;-1.05E-6;0;Navigation
2.00564062;0.0142361;54.9482;8.7419;34.5209;212.3903;0;-1.08E-6;0;Navigation
2.00564092;0.0142415;54.9481;8.7007;34.5515;223.0004;0;-1.09E-6;0;Navigation
2.00564123;0.0142482;54.9481;8.6429;34.5917;169.9141;0;-1.07E-6;0;Navigation
2.00564129;0.0142519;54.9481;8.6182;34.6108;250.7248;0;-1.05E-6;0;Navigation
2.00564139;0.0142563;54.9481;8.5798;34.6419;214.732;0;-1.01E-6;0;Navigation
2.00564139;0.014261;54.9481;8.5386;34.6695;225.2042;0;-9.6E-7;0;Navigation
2.00564139;0.014261;54.9481;8.5386;34.6695;225.2042;0;-9.6E-7;0;Navigation
2.00564139;0.014261;54.9481;8.5386;34.6695;225.2042;0;-9.6E-7;0;Navigation
2.00564126;0.0142685;54.948;8.4598;34.7211;186.5142;0;-8.5E-7;0;Navigation
2.00564117;0.0142697;54.9479;8.4401;34.7323;176.539;0;-8.2E-7;0;Navigation
2.00564094;0.0142744;54.9479;8.3963;34.7605;236.5225;0;-7.7E-7;0;Navigation
2.00564063;0.0142789;54.9478;8.3551;34.7899;248.8547;0;-7.3E-7;0;Navigation
2.00564063;0.0142789;54.9478;8.3551;34.7899;248.8547;0;-7.3E-7;0;Navigation
2.00564015;0.0142856;54.9478;8.2945;34.8326;245.0312;0;-7.0E-7;0;Navigation
2.00563977;0.0142906;54.9478;8.2534;34.8644;254.8817;0;-6.9E-7;0;Navigation
2.00563928;0.0142968;54.9477;8.1927;34.9056;253.164;0;-7.2E-7;0;Navigation
2.00563903;0.0143003;54.9477;8.1547;34.9292;208.2561;0;-7.4E-7;0;Navigation
2.00563882;0.014304;54.9477;8.1179;34.9559;140.8686;0;-7.7E-7;0;Navigation
2.00563863;0.0143084;54.9476;8.0771;34.9865;146.5868;0;-8.1E-7;0;Navigation
2.00563855;0.0143129;54.9476;8.0347;35.0198;178.405;0;-8.4E-7;0;Navigation
2.0056385;0.0143177;54.9476;7.9894;35.0573;261.7733;0;-8.7E-7;0;Navigation
2.00563851;0.0143197;54.9476;7.9703;35.0748;242.1806;0;-8.8E-7;0;Navigation
2.00563856;0.0143228;54.9476;7.9354;35.0978;140.4272;0;-8.9E-7;0;Navigation
2.00563869;0.0143271;54.9475;7.8945;35.1284;146.1197;0;-9.1E-7;0;Navigation
2.0056387;0.0143272;54.9475;7.8927;35.1289;178.3284;0;-9.1E-7;0;Navigation
2.00563897;0.0143329;54.9475;7.8363;35.1719;99.3336;0;-9.4E-7;0;Navigation
2.00563897;0.0143329;54.9475;7.8363;35.1719;99.3336;0;-9.4E-7;0;Navigation
2.00563897;0.0143329;54.9475;7.8363;35.1719;99.3336;0;-9.4E-7;0;Navigation
2.00563965;0.0143442;54.9474;7.7258;35.2633;261.9517;0;-1.02E-6;0;Navigation
2.00563976;0.0143451;54.9474;7.7122;35.2686;144.4837;0;-1.03E-6;0;Navigation
2.00564008;0.0143495;54.9473;7.6653;35.3047;256.5729;0;-1.07E-6;0;Navigation
2.00564008;0.0143495;54.9473;7.6653;35.3047;256.5729;0;-1.07E-6;0;Navigation
2.00564034;0.0143537;54.9473;7.6241;35.3367;268.7872;0;-1.08E-6;0;Navigation
2.00564059;0.0143572;54.9473;7.5861;35.3623;222.5272;0;-1.08E-6;0;Navigation
2.00564081;0.0143604;54.9472;7.5505;35.3848;135.1503;0;-1.07E-6;0;Navigation
2.00564092;0.0143622;54.9473;7.5297;35.3984;145.162;0;-1.06E-6;0;Navigation
2.00564099;0.014364;54.9473;7.5072;35.4142;184.072;0;-1.04E-6;0;Navigation
2.00564107;0.0143661;54.9472;7.4844;35.4283;228.1162;0;-1.02E-6;0;Navigation
2.00564107;0.0143661;54.9472;7.4844;35.4283;228.1162;0;-1.02E-6;0;Navigation
2.00564113;0.0143696;54.9472;7.4429;35.4591;245.6174;0;-9.6E-7;0;Navigation
2.00564109;0.0143737;54.9472;7.3878;35.5014;144.3954;0;-8.8E-7;0;Navigation
2.00564096;0.0143768;54.9472;7.3472;35.5307;146.5915;0;-8.2E-7;0;Navigation
2.00564096;0.0143768;54.9472;7.3452;35.5268;181.6755;0;-8.2E-7;0;Navigation
2.00564081;0.0143792;54.9471;7.3197;35.5512;275.3594;0;-7.9E-7;0;Navigation
2.00564058;0.0143821;54.9471;7.2811;35.5763;239.7143;0;-7.4E-7;0;Navigation
2.00564058;0.0143821;54.9471;7.2811;35.5763;239.7143;0;-7.4E-7;0;Navigation
2.00564045;0.0143834;54.9471;7.263;35.5899;202.0105;0;-7.2E-7;0;Navigation
2.00564005;0.0143872;54.9471;7.2144;35.6269;345.6108;0;-6.8E-7;0;Navigation
2.00564005;0.0143872;54.9471;7.2144;35.6269;345.6108;0;-6.8E-7;0;Navigation
2.00564005;0.0143872;54.9471;7.2144;35.6269;345.6108;0;-6.8E-7;0;Navigation
2.00563966;0.0143909;54.947;7.1649;35.6612;144.1189;0;-6.6E-7;0;Navigation
2.00563966;0.0143909;54.947;7.1649;35.6612;144.1189;0;-6.6E-7;0;Navigation
2.00563929;0.0143944;54.947;7.1212;35.6956;200.5746;0;-6.6E-7;0;Navigation
2.00563913;0.0143958;54.947;7.1013;35.7102;193.1288;0;-6.7E-7;0;Navigation
2.00563898;0.0143976;54.947;7.0814;35.7215;186.7052;0;-6.8E-7;0;Navigation
2.00563898;0.0143976;54.947;7.0814;35.7215;186.7052;0;-6.8E-7;0;Navigation
2.00563842;0.0144048;54.947;6.9824;35.7917;143.6046;0;-7.4E-7;0;Navigation
2.00563842;0.0144048;54.947;6.9824;35.7917;143.6046;0;-7.4E-7;0;Navigation
2.00563834;0.0144062;54.947;6.9612;35.8054;159.31;0;-7.5E-7;0;Navigation
2.00563822;0.014408;54.947;6.9352;35.8315;260.6052;0;-7.7E-7;0;Navigation
2.0056382;0.0144093;54.947;6.9196;35.8406;177.8659;0;-7.8E-7;0;Navigation
2.0056382;0.0144093;54.947;6.9196;35.8406;177.8659;0;-7.8E-7;0;Navigation
2.00563816;0.0144136;54.947;6.8606;35.8838;144.6842;0;-8.1E-7;0;Navigation
2.00563816;0.0144136;54.947;6.8606;35.8838;144.6842;0;-8.1E-7;0;Navigation
2.00563828;0.0144184;54.947;6.7999;35.9248;143.1043;0;-8.4E-7;0;Navigation
2.00563836;0.01442;54.947;6.7784;35.9396;164.9836;0;-8.4E-7;0;Navigation
2.00563836;0.01442;54.947;6.7784;35.9396;164.9836;0;-8.4E-7;0;Navigation
2.00563846;0.0144225;54.947;6.7367;35.9829;184.5207;0;-8.7E-7;0;Navigation
2.00563846;0.0144225;54.947;6.7367;35.9829;184.5207;0;-8.7E-7;0;Navigation
2.00563846;0.0144225;54.947;6.7367;35.9829;184.5207;0;-8.7E-7;0;Navigation
2.00563846;0.0144225;54.947;6.7367;35.9829;184.5207;0;-8.7E-7;0;Navigation
2.00563846;0.0144225;54.947;6.7367;35.9829;184.5207;0;-8.7E-7;0;Navigation
2.00563969;0.0144344;54.9469;6.5505;36.1217;252.2701;0;-1.01E-6;0;Navigation
2.00563969;0.0144344;54.9469;6.5505;36.1217;252.2701;0;-1.01E-6;0;Navigation
2.00563988;0.0144362;54.9469;6.527;36.1323;310.0158;0;-1.02E-6;0;Navigation
2.00563996;0.0144369;54.9469;6.5096;36.1556;259.8754;0;-1.03E-6;0;Navigation
2.00563996;0.0144369;54.9469;6.5096;36.1556;259.8754;0;-1.03E-6;0;Navigation
2.00564018;0.0144391;54.9469;6.4779;36.1771;102.8541;0;-1.03E-6;0;Navigation
2.00564018;0.0144391;54.9469;6.4779;36.1771;102.8541;0;-1.03E-6;0;Navigation
2.0056404;0.0144418;54.9469;6.4352;36.1954;142.1136;0;-1.01E-6;0;Navigation
2.0056404;0.0144418;54.9469;6.4352;36.1954;142.1136;0;-1.01E-6;0;Navigation
2.0056404;0.0144418;54.9469;6.4352;36.1954;142.1136;0;-1.01E-6;0;Navigation
2.0056404;0.0144418;54.9469;6.4352;36.1954;142.1136;0;-1.01E-6;0;Navigation
2.00564072;0.0144489;54.9469;6.2973;36.2887;72.6362;0;-8.5E-7;0;Navigation
2.00564072;0.0144489;54.9469;6.2973;36.2887;72.6362;0;-8.5E-7;0;Navigation
2.00564054;0.0144515;54.9469;6.2458;36.3239;268.1564;0;-7.8E-7;0;Navigation
2.00564041;0.0144531;54.9469;6.2119;36.3408;150.9702;0;-7.3E-7;0;Navigation
2.00564018;0.0144558;54.9468;6.1696;36.3591;181.6726;0;-6.8E-7;0;Navigation
2.00563977;0.0144574;54.9468;6.121;36.401;325.2205;0;-6.3E-7;0;Navigation
2.00563951;0.0144588;54.9468;6.0909;36.4204;141.4366;0;-6.2E-7;0;Navigation
2.00563932;0.0144596;54.9468;6.0707;36.433;141.1016;0;-6.1E-7;0;Navigation
2.00563912;0.0144605;54.9468;6.0503;36.4455;142.9806;0;-6.0E-7;0;Navigation
2.00563895;0.0144617;54.9468;6.0298;36.4612;146.7254;0;-6.0E-7;0;Navigation
2.00563895;0.0144617;54.9468;6.0298;36.4612;146.7254;0;-6.0E-7;0;Navigation
2.00563895;0.0144617;54.9468;6.0298;36.4612;146.7254;0;-6.0E-7;0;Navigation
2.00563831;0.0144654;54.9468;5.9493;36.5145;137.2181;0;-6.2E-7;0;Navigation
2.00563817;0.0144665;54.9468;5.9288;36.5277;141.4278;0;-6.3E-7;0;Navigation
2.00563798;0.0144665;54.9468;5.9081;36.5433;150.0485;0;-6.5E-7;0;Navigation
2.00563791;0.0144684;54.9468;5.8883;36.5521;140.587;0;-6.6E-7;0;Navigation
2.00563772;0.0144704;54.9468;5.8479;36.5778;139.6961;0;-6.8E-7;0;Navigation
2.00563772;0.0144704;54.9468;5.8479;36.5778;139.6961;0;-6.8E-7;0;Navigation
2.00563772;0.0144704;54.9468;5.8479;36.5778;139.6961;0;-6.8E-7;0;Navigation
2.0056376;0.0144763;54.9468;5.7161;36.6671;321.419;0;-7.5E-7;0;Navigation
2.0056376;0.0144763;54.9468;5.7161;36.6671;321.419;0;-7.5E-7;0;Navigation
2.0056376;0.0144763;54.9468;5.7161;36.6671;321.419;0;-7.5E-7;0;Navigation
2.00563795;0.0144819;54.9467;5.6045;36.7407;144.6575;0;-8.2E-7;0;Navigation
2.00563796;0.014482;54.9467;5.6024;36.7426;182.8056;0;-8.2E-7;0;Navigation
2.00563824;0.0144839;54.9466;5.5539;36.775;323.3857;0;-8.6E-7;0;Navigation
2.00563824;0.0144839;54.9466;5.5539;36.775;323.3857;0;-8.6E-7;0;Navigation
2.00563824;0.0144839;54.9466;5.5539;36.775;323.3857;0;-8.6E-7;0;Navigation
2.00563824;0.0144839;54.9466;5.5539;36.775;323.3857;0;-8.6E-7;0;Navigation
2.00563936;0.0144897;54.9465;5.4017;36.8703;150.3409;0;-9.8E-7;0;Navigation
